{
    "links": {
        "self": "http://www.neowsapp.com/rest/v1/neo/3475240?api_key=iIulBulltgU6a56xZRHN4H3l9WmuAYTsLGpBGhQ2"
    },
    "id": "3475240",
    "neo_reference_id": "3475240",
    "name": "(2009 VB1)",
    "designation": "2009 VB1",
    "nasa_jpl_url": "http://ssd.jpl.nasa.gov/sbdb.cgi?sstr=3475240",
    "absolute_magnitude_h": 23.7,
    "estimated_diameter": {
        "kilometers": {
            "estimated_diameter_min": 0.0483676488,
            "estimated_diameter_max": 0.1081533507
        },
        "meters": {
            "estimated_diameter_min": 48.3676488219,
            "estimated_diameter_max": 108.1533506775
        },
        "miles": {
            "estimated_diameter_min": 0.0300542543,
            "estimated_diameter_max": 0.0672033557
        },
        "feet": {
            "estimated_diameter_min": 158.6865169607,
            "estimated_diameter_max": 354.8338390368
        }
    },
    "is_potentially_hazardous_asteroid": false,
    "close_approach_data": [
        {
            "close_approach_date": "2009-11-14",
            "close_approach_date_full": "2009-Nov-14 17:06",
            "epoch_date_close_approach": 1258218360000,
            "relative_velocity": {
                "kilometers_per_second": "16.4745806835",
                "kilometers_per_hour": "59308.4904607087",
                "miles_per_hour": "36851.9895309887"
            },
            "miss_distance": {
                "astronomical": "0.1820609559",
                "lunar": "70.8217118451",
                "kilometers": "27235931.212803933",
                "miles": "16923622.8968149554"
            },
            "orbiting_body": "Earth"
        }
    ],
    "orbital_data": {
        "orbit_id": "9",
        "orbit_determination_date": "2017-04-06 08:59:16",
        "first_observation_date": "2009-11-09",
        "last_observation_date": "2009-11-16",
        "data_arc_in_days": 7,
        "observations_used": 24,
        "orbit_uncertainty": "9",
        "minimum_orbit_intersection": ".17728",
        "jupiter_tisserand_invariant": "4.166",
        "epoch_osculation": "2455146.5",
        "eccentricity": ".3003332734577051",
        "semi_major_axis": "1.596027387737862",
        "inclination": "30.96595219226128",
        "ascending_node_longitude": "228.0164094212402",
        "orbital_period": "736.4765721703756",
        "perihelion_distance": "1.1166872578504",
        "perihelion_argument": "218.0362208855315",
        "aphelion_distance": "2.075367517625324",
        "perihelion_time": "2455188.239680426582",
        "mean_anomaly": "339.5970632042137",
        "mean_motion": ".4888139196866646",
        "equinox": "J2000",
        "orbit_class": {
            "orbit_class_type": "AMO",
            "orbit_class_description": "Near-Earth asteroid orbits similar to that of 1221 Amor",
            "orbit_class_range": "1.017 AU < q (perihelion) < 1.3 AU"
        }
    },
    "is_sentry_object": false
}